NORAD_CAT_ID,OBJECT_NAME,OBJECT_TYPE,EPOCH,MEAN_MOTION,ECCENTRICITY,INCLINATION,RA_OF_ASC_NODE,ARG_OF_PERICENTER,MEAN_ANOMALY,BSTAR,MEAN_MOTION_DOT,MEAN_MOTION_DDOT,TLE_LINE0,TLE_LINE1,TLE_LINE2,SEMIMAJOR_AXIS,PERIOD,APOGEE,PERIGEE,DECAYED
53014.0,STARLINK-4183,PAYLOAD,2023-05-11 00:46:37,15.08851843,0.0001255,53.2175,44.3887,93.0071,267.1065,0.0002238,3.277e-05,0.0,0 STARLINK-4183,1 53014U 22076AE  23131.03238366  .00003277  00000-0  22380-3 0  9998,2 53014  53.2175  44.3887 0001255  93.0071 267.1065 15.08851843 46937,6917.844,95.437,540.577,538.841,0.0
53014.0,STARLINK-4183,PAYLOAD,2023-05-12 00:37:25,15.08837694,0.0001357,53.2165,39.9239,89.7578,270.3569,2.824e-05,1.62e-06,0.0,0 STARLINK-4183,1 53014U 22076AE  23132.02599045  .00000162  00000-0  28240-4 0  9994,2 53014  53.2165  39.9239 0001357  89.7578 270.3569 15.08837694 47556,6917.887,95.438,540.691,538.814,0.0
53014.0,STARLINK-4183,PAYLOAD,2023-05-12 21:17:26,15.08839882,0.0001093,53.2177,36.0651,101.8669,258.2446,0.00011374,1.523e-05,0.0,0 STARLINK-4183,1 53014U 22076AE  23132.88711389  .00001523  00000-0  11374-3 0  9996,2 53014  53.2177  36.0651 0001093 101.8669 258.2446 15.08839882 47212,6917.881,95.438,540.502,538.99,0.0
53014.0,STARLINK-4183,PAYLOAD,2023-05-13 03:38:58,15.08852943,0.0001158,53.2182,34.8769,101.8164,258.2958,0.0003688,5.588e-05,0.0,0 STARLINK-4183,1 53014U 22076AE  23133.15206875  .00005588  00000-0  36880-3 0  9990,2 53014  53.2182  34.8769 0001158 101.8164 258.2958 15.08852943 47723,6917.841,95.437,540.507,538.905,0.0
53014.0,STARLINK-4183,PAYLOAD,2023-05-13 21:08:14,15.08833828,0.0001234,53.2178,31.6061,100.108,260.0052,5.0915e-05,5.22e-06,0.0,0 STARLINK-4183,1 53014U 22076AE  23133.88071906  .00000522  00000-0  50915-4 0  9994,2 53014  53.2178  31.6061 0001234 100.1080 260.0052 15.08833828 47369,6917.899,95.438,540.618,538.911,0.0
53014.0,STARLINK-4183,PAYLOAD,2023-05-14 01:54:23,15.08838492,0.0001255,53.2179,30.7137,98.7246,261.3888,0.00013592,1.876e-05,0.0,0 STARLINK-4183,1 53014U 22076AE  23134.07943821  .00001876  00000-0  13592-3 0  9992,2 53014  53.2179  30.7137 0001255  98.7246 261.3888 15.08838492 47861,6917.885,95.438,540.618,538.882,0.0
53014.0,STARLINK-4183,PAYLOAD,2023-05-14 20:59:00,15.08846801,0.0001291,53.218,27.1456,98.3448,261.7691,0.00015331,2.153e-05,0.0,0 STARLINK-4183,1 53014U 22076AE  23134.87431539  .00002153  00000-0  15331-3 0  9990,2 53014  53.2180  27.1456 0001291  98.3448 261.7691 15.08846801 47518,6917.86,95.437,540.618,538.832,0.0
53014.0,STARLINK-4183,PAYLOAD,2023-05-15 03:20:33,15.08855969,0.0001203,53.2171,25.9546,90.5135,269.5995,0.00057317,8.85e-05,0.0,0 STARLINK-4183,1 53014U 22076AE  23135.13927336  .00008850  00000-0  57317-3 0  9995,2 53014  53.2171  25.9546 0001203  90.5135 269.5995 15.08855969 48029,6917.832,95.437,540.529,538.864,0.0
53014.0,STARLINK-4183,PAYLOAD,2023-05-15 09:42:05,15.08841052,0.0001403,53.2168,24.7589,84.4839,275.6314,7.9549e-05,9.78e-06,0.0,0 STARLINK-4183,1 53014U 22076AE  23135.40422983  .00000978  00000-0  79549-4 0  9998,2 53014  53.2168  24.7589 0001403  84.4839 275.6314 15.08841052 48069,6917.877,95.437,540.713,538.772,0.0
53014.0,STARLINK-4183,PAYLOAD,2023-05-16 01:35:57,15.08843424,0.0001219,53.2174,21.7918,89.3137,270.7995,0.0001315,1.806e-05,0.0,0 STARLINK-4183,1 53014U 22076AE  23136.06663703  .00001806  00000-0  13150-3 0  9994,2 53014  53.2174  21.7918 0001219  89.3137 270.7995 15.08843424 48166,6917.87,95.437,540.578,538.892,0.0
53014.0,STARLINK-4183,PAYLOAD,2023-05-16 22:15:58,15.08843915,0.0001238,53.2167,17.924,104.4104,255.7026,1.5348e-05,-4.4e-07,0.0,0 STARLINK-4183,1 53014U 22076AE  23136.92775640 -.00000044  00000-0  15348-4 0  9999,2 53014  53.2167  17.9240 0001238 104.4104 255.7026 15.08843915 47822,6917.868,95.437,540.59,538.877,0.0
53014.0,STARLINK-4183,PAYLOAD,2023-05-17 22:06:45,15.08839602,0.0001185,53.2167,13.4656,88.4981,271.6147,9.0651e-05,1.155e-05,0.0,0 STARLINK-4183,1 53014U 22076AE  23137.92136158  .00001155  00000-0  90651-4 0  9998,2 53014  53.2167  13.4656 0001185  88.4981 271.6147 15.08839602 47974,6917.882,95.438,540.566,538.927,0.0
53014.0,STARLINK-4183,PAYLOAD,2023-05-18 01:17:31,15.08841934,0.0001191,53.2168,12.8699,88.4177,271.6951,8.1521e-05,1.01e-05,0.0,0 STARLINK-4183,1 53014U 22076AE  23138.05384046  .00001010  00000-0  81521-4 0  9990,2 53014  53.2168  12.8699 0001191  88.4177 271.6951 15.08841934 48468,6917.874,95.437,540.563,538.916,0.0
53014.0,STARLINK-4183,PAYLOAD,2023-05-18 15:35:59,15.08844076,0.0001186,53.2167,10.194,84.6656,275.4471,0.00014311,1.991e-05,0.0,0 STARLINK-4183,1 53014U 22076AE  23138.64999973  .00001991  00000-0  14311-3 0  9996,2 53014  53.2167  10.1940 0001186  84.6656 275.4471 15.08844076 48088,6917.868,95.437,540.553,538.912,0.0
53014.0,STARLINK-4183,PAYLOAD,2023-05-19 21:48:19,15.08847338,0.0001026,53.2167,4.5447,87.7112,272.3997,0.00012645,1.726e-05,0.0,0 STARLINK-4183,1 53014U 22076AE  23139.90855606  .00001726  00000-0  12645-3 0  9994,2 53014  53.2167   4.5447 0001026  87.7112 272.3997 15.08847338 48275,6917.858,95.437,540.433,539.013,0.0
53014.0,STARLINK-4183,PAYLOAD,2023-05-20 21:39:05,15.08853091,0.0001212,53.2161,0.0866,94.5989,265.5141,0.00016714,2.374e-05,0.0,0 STARLINK-4183,1 53014U 22076AE  23140.90215033  .00002374  00000-0  16714-3 0  9991,2 53014  53.2161   0.0866 0001212  94.5989 265.5141 15.08853091 48425,6917.84,95.437,540.544,538.867,0.0
53014.0,STARLINK-4183,PAYLOAD,2023-05-21 00:49:51,15.0885687,0.000114,53.2164,359.489,95.6762,264.436,0.00022115,3.235e-05,0.0,0 STARLINK-4183,1 53014U 22076AE  23141.03462716  .00003235  00000-0  22115-3 0  9997,2 53014  53.2164 359.4890 0001140  95.6762 264.4360 15.08856870 48910,6917.829,95.436,540.482,538.905,0.0
53014.0,STARLINK-4183,PAYLOAD,2023-05-21 18:19:08,15.08823982,0.0001067,53.2159,356.2195,106.4657,253.6452,-0.00014944,-2.664e-05,0.0,0 STARLINK-4183,1 53014U 22076AE  23141.76328766 -.00002664  00000-0 -14944-3 0  9991,2 53014  53.2159 356.2195 0001067 106.4657 253.6452 15.08823982 48559,6917.929,95.439,540.532,539.056,0.0
53014.0,STARLINK-4183,PAYLOAD,2023-05-21 19:54:31,15.08822428,9.01e-05,53.216,355.9221,87.8298,272.2797,-0.00016088,-2.846e-05,0.0,0 STARLINK-4183,1 53014U 22076AE  23141.82952948 -.00002846  00000-0 -16088-3 0  9996,2 53014  53.2160 355.9221 0000901  87.8298 272.2797 15.08822428 49033,6917.934,95.439,540.422,539.176,0.0
53014.0,STARLINK-4183,PAYLOAD,2023-05-23 02:06:50,15.088484,8.97e-05,53.2162,350.2713,77.4632,282.646,0.00046839,7.176e-05,0.0,0 STARLINK-4183,1 53014U 22076AE  23143.08808860  .00007176  00000-0  46839-3 0  9995,2 53014  53.2162 350.2713 0000897  77.4632 282.6460 15.08848400 49221,6917.855,95.437,540.34,539.099,0.0
53014.0,STARLINK-4183,PAYLOAD,2023-05-23 05:17:37,15.08835494,9.96e-05,53.216,349.6764,94.8696,265.241,0.00047822,7.33e-05,0.0,0 STARLINK-4183,1 53014U 22076AE  23143.22057622  .00007330  00000-0  47822-3 0  9998,2 53014  53.2160 349.6764 0000996  94.8696 265.2410 15.08835494 49243,6917.894,95.438,540.448,539.07,0.0
53014.0,STARLINK-4183,PAYLOAD,2023-05-23 18:00:42,15.08858466,8.73e-05,53.216,347.2973,78.8332,281.2758,0.00077528,0.00012078,0.0,0 STARLINK-4183,1 53014U 22076AE  23143.75048931  .00012078  00000-0  77528-3 0  9990,2 53014  53.2160 347.2973 0000873  78.8332 281.2758 15.08858466 49328,6917.824,95.436,540.293,539.085,0.0
53014.0,STARLINK-4183,PAYLOAD,2023-05-23 21:11:28,15.08858698,8.45e-05,53.216,346.7031,82.4768,277.6321,0.0011064,0.00017373,0.0,0 STARLINK-4183,1 53014U 22076AE  23143.88296834  .00017373  00000-0  11064-2 0  9996,2 53014  53.2160 346.7031 0000845  82.4768 277.6321 15.08858698 48871,6917.823,95.436,540.273,539.104,0.0
53014.0,STARLINK-4183,PAYLOAD,2023-05-24 05:08:24,15.08844746,9.56e-05,53.2159,345.2162,71.404,288.7056,0.00048018,7.363e-05,0.0,0 STARLINK-4183,1 53014U 22076AE  23144.21416888  .00007363  00000-0  48018-3 0  9995,2 53014  53.2159 345.2162 0000956  71.4040 288.7056 15.08844746 49397,6917.866,95.437,540.392,539.07,0.0
53014.0,STARLINK-4183,PAYLOAD,2023-05-24 14:40:42,15.08850172,8.3e-05,53.2159,343.4315,91.9784,268.1303,0.00038796,5.894e-05,0.0,0 STARLINK-4183,1 53014U 22076AE  23144.61160642  .00005894  00000-0  38796-3 0  9992,2 53014  53.2159 343.4315 0000830  91.9784 268.1303 15.08850172 48981,6917.849,95.437,540.288,539.14,0.0
53014.0,STARLINK-4183,PAYLOAD,2023-05-25 17:42:16,15.08850043,9.28e-05,53.2163,338.3767,73.4219,286.6875,0.0004542,6.95e-05,0.0,0 STARLINK-4183,1 53014U 22076AE  23145.73768627  .00006950  00000-0  45420-3 0  9999,2 53014  53.2163 338.3767 0000928  73.4219 286.6875 15.08850043 49624,6917.85,95.437,540.357,539.073,0.0
53014.0,STARLINK-4183,PAYLOAD,2023-05-25 19:17:39,15.0885019,8.69e-05,53.2162,338.0788,85.3274,274.7818,0.00044322,6.775e-05,0.0,0 STARLINK-4183,1 53014U 22076AE  23145.80392537  .00006775  00000-0  44322-3 0  9995,2 53014  53.2162 338.0788 0000869  85.3274 274.7818 15.08850190 49167,6917.849,95.437,540.315,539.113,0.0
53014.0,STARLINK-4183,PAYLOAD,2023-05-26 12:46:53,15.08840916,0.0001334,53.2163,334.8074,79.1735,280.9407,9.5402e-05,1.231e-05,0.0,0 STARLINK-4183,1 53014U 22076AE  23146.53256764  .00001231  00000-0  95402-4 0  9995,2 53014  53.2163 334.8074 0001334  79.1735 280.9407 15.08840916 49271,6917.878,95.437,540.665,538.82,0.0
53014.0,STARLINK-4183,PAYLOAD,2023-05-26 17:33:03,15.08841012,9.91e-05,53.2162,333.915,98.7126,261.3978,8.4409e-05,1.056e-05,0.0,0 STARLINK-4183,1 53014U 22076AE  23146.73128661  .00001056  00000-0  84409-4 0  9991,2 53014  53.2162 333.9150 0000991  98.7126 261.3978 15.08841012 49773,6917.877,95.437,540.428,539.057,0.0
53014.0,STARLINK-4183,PAYLOAD,2023-05-26 19:08:26,15.08841314,9.69e-05,53.2163,333.6178,98.606,261.5042,8.0932e-05,1.001e-05,0.0,0 STARLINK-4183,1 53014U 22076AE  23146.79752663  .00001001  00000-0  80932-4 0  9999,2 53014  53.2163 333.6178 0000969  98.6060 261.5042 15.08841314 49311,6917.876,95.437,540.412,539.071,0.0
